1 34079U 97051CN  26115.03891691  .00010655  00000+0  11512-2 0  9995
2 34079  86.3730 307.7910 0004945 215.2627 272.9547 14.88226344909574
